[
    {
        "Altitude(m)": 704709.3562756394,
        "Argument of Periapsis(deg)": 0.010251109067964361,
        "Eccentricity": 0.0,
        "Inclination(deg)": 45.0,
        "Latitude(deg)": -7.42819938422795,
        "Longitude(deg)": 116.7576340903985,
        "Mean Anomaly(deg)": 190.37989498273274,
        "RAAN(deg)": 29.99032325268761,
        "Satellite Name": "Constellation 1 143",
        "Satellite Number": 143,
        "Semi-Major Axis(m)": 7083131.272910544,
        "Time(s)": 171
    },
    {
        "Altitude(m)": 704718.3556528555,
        "Argument of Periapsis(deg)": 0.010311057074209765,
        "Eccentricity": 0.0,
        "Inclination(deg)": 45.0,
        "Latitude(deg)": -7.47102727999846,
        "Longitude(deg)": 116.79709669024139,
        "Mean Anomaly(deg)": 190.44059612298264,
        "RAAN(deg)": 29.990266663522046,
        "Satellite Name": "Constellation 1 143",
        "Satellite Number": 143,
        "Semi-Major Axis(m)": 7083131.272910544,
        "Time(s)": 172
    },
    {
        "Altitude(m)": 704727.3731757018,
        "Argument of Periapsis(deg)": 0.010371005080455171,
        "Eccentricity": 0.0,
        "Inclination(deg)": 45.0,
        "Latitude(deg)": -7.513850708354495,
        "Longitude(deg)": 116.83656768432286,
        "Mean Anomaly(deg)": 190.50129726323257,
        "RAAN(deg)": 29.990210074356472,
        "Satellite Name": "Constellation 1 143",
        "Satellite Number": 143,
        "Semi-Major Axis(m)": 7083131.272910544,
        "Time(s)": 173
    },
    {
        "Altitude(m)": 704736.4088220046,
        "Argument of Periapsis(deg)": 0.010430953086700577,
        "Eccentricity": 0.0,
        "Inclination(deg)": 45.0,
        "Latitude(deg)": -7.5566696430297915,
        "Longitude(deg)": 116.8760471224771,
        "Mean Anomaly(deg)": 190.56199840348245,
        "RAAN(deg)": 29.990153485190906,
        "Satellite Name": "Constellation 1 143",
        "Satellite Number": 143,
        "Semi-Major Axis(m)": 7083131.272910544,
        "Time(s)": 174
    },
    {
        "Altitude(m)": 704745.4625695028,
        "Argument of Periapsis(deg)": 0.010490901092945983,
        "Eccentricity": 0.0,
        "Inclination(deg)": 45.0,
        "Latitude(deg)": -7.599484057742458,
        "Longitude(deg)": 116.91553505455617,
        "Mean Anomaly(deg)": 190.62269954373238,
        "RAAN(deg)": 29.99009689602533,
        "Satellite Name": "Constellation 1 143",
        "Satellite Number": 143,
        "Semi-Major Axis(m)": 7083131.272910544,
        "Time(s)": 175
    },
    {
        "Altitude(m)": 704754.5343958499,
        "Argument of Periapsis(deg)": 0.010550849099191389,
        "Eccentricity": 0.0,
        "Inclination(deg)": 45.0,
        "Latitude(deg)": -7.642293926194508,
        "Longitude(deg)": 116.95503153042964,
        "Mean Anomaly(deg)": 190.68340068398223,
        "RAAN(deg)": 29.99004030685977,
        "Satellite Name": "Constellation 1 143",
        "Satellite Number": 143,
        "Semi-Major Axis(m)": 7083131.272910544,
        "Time(s)": 176
    },
    {
        "Altitude(m)": 704763.6242786126,
        "Argument of Periapsis(deg)": 0.010610797105436795,
        "Eccentricity": 0.0,
        "Inclination(deg)": 45.0,
        "Latitude(deg)": -7.685099222072089,
        "Longitude(deg)": 116.99453659998522,
        "Mean Anomaly(deg)": 190.74410182423213,
        "RAAN(deg)": 29.989983717694194,
        "Satellite Name": "Constellation 1 143",
        "Satellite Number": 143,
        "Semi-Major Axis(m)": 7083131.272910544,
        "Time(s)": 177
    },
    {
        "Altitude(m)": 704772.732195271,
        "Argument of Periapsis(deg)": 0.0106707451116822,
        "Eccentricity": 0.0,
        "Inclination(deg)": 45.0,
        "Latitude(deg)": -7.727899919045047,
        "Longitude(deg)": 117.03405014503144,
        "Mean Anomaly(deg)": 190.804802964482,
        "RAAN(deg)": 29.989927128528624,
        "Satellite Name": "Constellation 1 143",
        "Satellite Number": 143,
        "Semi-Major Axis(m)": 7083131.272910544,
        "Time(s)": 178
    },
    {
        "Altitude(m)": 704781.8581232227,
        "Argument of Periapsis(deg)": 0.010730693117927606,
        "Eccentricity": 0.0,
        "Inclination(deg)": 45.0,
        "Latitude(deg)": -7.770695990767347,
        "Longitude(deg)": 117.07357255168584,
        "Mean Anomaly(deg)": 190.86550410473194,
        "RAAN(deg)": 29.989870539363057,
        "Satellite Name": "Constellation 1 143",
        "Satellite Number": 143,
        "Semi-Major Axis(m)": 7083131.272910544,
        "Time(s)": 179
    },
    {
        "Altitude(m)": 704791.0020397843,
        "Argument of Periapsis(deg)": 0.01079064112417301,
        "Eccentricity": 0.0,
        "Inclination(deg)": 45.0,
        "Latitude(deg)": -7.8134874108762995,
        "Longitude(deg)": 117.11310370179321,
        "Mean Anomaly(deg)": 190.92620524498184,
        "RAAN(deg)": 29.98981395019749,
        "Satellite Name": "Constellation 1 143",
        "Satellite Number": 143,
        "Semi-Major Axis(m)": 7083131.272910544,
        "Time(s)": 180
    },
    {
        "Altitude(m)": 704800.1639221751,
        "Argument of Periapsis(deg)": 0.010850589130418416,
        "Eccentricity": 0.0,
        "Inclination(deg)": 45.0,
        "Latitude(deg)": -7.856274152993044,
        "Longitude(deg)": 117.15264364531356,
        "Mean Anomaly(deg)": 190.98690638523175,
        "RAAN(deg)": 29.989757361031916,
        "Satellite Name": "Constellation 1 143",
        "Satellite Number": 143,
        "Semi-Major Axis(m)": 7083131.272910544,
        "Time(s)": 181
    },
    {
        "Altitude(m)": 704809.3437475433,
        "Argument of Periapsis(deg)": 0.01091053713666382,
        "Eccentricity": 0.0,
        "Inclination(deg)": 45.0,
        "Latitude(deg)": -7.899056190722045,
        "Longitude(deg)": 117.19219243222517,
        "Mean Anomaly(deg)": 191.04760752548162,
        "RAAN(deg)": 29.989700771866353,
        "Satellite Name": "Constellation 1 143",
        "Satellite Number": 143,
        "Semi-Major Axis(m)": 7083131.272910544,
        "Time(s)": 182
    },
    {
        "Altitude(m)": 704818.541492944,
        "Argument of Periapsis(deg)": 0.010970485142909228,
        "Eccentricity": 0.0,
        "Inclination(deg)": 45.0,
        "Latitude(deg)": -7.941833497651302,
        "Longitude(deg)": 117.23175011252488,
        "Mean Anomaly(deg)": 191.10830866573153,
        "RAAN(deg)": 29.98964418270078,
        "Satellite Name": "Constellation 1 143",
        "Satellite Number": 143,
        "Semi-Major Axis(m)": 7083131.272910544,
        "Time(s)": 183
    },
    {
        "Altitude(m)": 704827.7571353469,
        "Argument of Periapsis(deg)": 0.011030433149154634,
        "Eccentricity": 0.0,
        "Inclination(deg)": 45.0,
        "Latitude(deg)": -7.984606047352208,
        "Longitude(deg)": 117.27131673622799,
        "Mean Anomaly(deg)": 191.1690098059814,
        "RAAN(deg)": 29.98958759353521,
        "Satellite Name": "Constellation 1 143",
        "Satellite Number": 143,
        "Semi-Major Axis(m)": 7083131.272910544,
        "Time(s)": 184
    },
    {
        "Altitude(m)": 704836.9906516391,
        "Argument of Periapsis(deg)": 0.01109038115540004,
        "Eccentricity": 0.0,
        "Inclination(deg)": 45.0,
        "Latitude(deg)": -8.027373813378954,
        "Longitude(deg)": 117.31089218527121,
        "Mean Anomaly(deg)": 191.22971094623134,
        "RAAN(deg)": 29.989531004369635,
        "Satellite Name": "Constellation 1 143",
        "Satellite Number": 143,
        "Semi-Major Axis(m)": 7083131.272910544,
        "Time(s)": 185
    },
    {
        "Altitude(m)": 704846.2420186264,
        "Argument of Periapsis(deg)": 0.011150329161645444,
        "Eccentricity": 0.0,
        "Inclination(deg)": 45.0,
        "Latitude(deg)": -8.07013676926944,
        "Longitude(deg)": 117.35047684590131,
        "Mean Anomaly(deg)": 191.29041208648124,
        "RAAN(deg)": 29.98947441520407,
        "Satellite Name": "Constellation 1 143",
        "Satellite Number": 143,
        "Semi-Major Axis(m)": 7083131.272910544,
        "Time(s)": 186
    },
    {
        "Altitude(m)": 704855.5112130289,
        "Argument of Periapsis(deg)": 0.01121027716789085,
        "Eccentricity": 0.0,
        "Inclination(deg)": 45.0,
        "Latitude(deg)": -8.112894888544181,
        "Longitude(deg)": 117.39007060009257,
        "Mean Anomaly(deg)": 191.3511132267311,
        "RAAN(deg)": 29.989417826038498,
        "Satellite Name": "Constellation 1 143",
        "Satellite Number": 143,
        "Semi-Major Axis(m)": 7083131.272910544,
        "Time(s)": 187
    },
    {
        "Altitude(m)": 704864.7982114715,
        "Argument of Periapsis(deg)": 0.011270225174136258,
        "Eccentricity": 0.0,
        "Inclination(deg)": 45.0,
        "Latitude(deg)": -8.155648144706689,
        "Longitude(deg)": 117.42967349793538,
        "Mean Anomaly(deg)": 191.41181436698102,
        "RAAN(deg)": 29.98936123687293,
        "Satellite Name": "Constellation 1 143",
        "Satellite Number": 143,
        "Semi-Major Axis(m)": 7083131.272910544,
        "Time(s)": 188
    },
    {
        "Altitude(m)": 704874.1029905138,
        "Argument of Periapsis(deg)": 0.011330173180381662,
        "Eccentricity": 0.0,
        "Inclination(deg)": 45.0,
        "Latitude(deg)": -8.19839651124336,
        "Longitude(deg)": 117.4692855895388,
        "Mean Anomaly(deg)": 191.47251550723092,
        "RAAN(deg)": 29.989304647707364,
        "Satellite Name": "Constellation 1 143",
        "Satellite Number": 143,
        "Semi-Major Axis(m)": 7083131.272910544,
        "Time(s)": 189
    }
]